{
  "type": "FeatureCollection",
  "features": [
    {
      "type": "Feature",
      "properties": {
        "norad_id": 34425,
        "name": "COSMOS 2251 DEB",
        "group": "cosmos-2251-debris",
        "lat": -67.30809794782671,
        "lon": -108.23574820753115,
        "alt_km": 696.647764806823,
        "timestamp": "2025-12-26T07:29:18.848743+00:00",
        "meta_object_name": "COSMOS 2251 DEB",
        "meta_object_id": "1993-036RS",
        "meta_epoch": "2025-12-25T12:16:17.383584",
        "meta_mean_motion": 14.62194073,
        "meta_eccentricity": 0.00241,
        "meta_inclination": 74.0191,
        "meta_ra_of_asc_node": 30.0353,
        "meta_arg_of_pericenter": 152.8146,
        "meta_mean_anomaly": 207.4288,
        "meta_ephemeris_type": 0,
        "meta_classification_type": "U",
        "meta_norad_cat_id": 34425,
        "meta_element_set_no": 999,
        "meta_rev_at_epoch": 88927,
        "meta_bstar": 0.0005196,
        "meta_mean_motion_dot": 2.598e-05,
        "meta_mean_motion_ddot": 0,
        "tle_line1": "1 34425U 93036RS  25359.51131231  .00002598  00000+0  51960-3 0  9997",
        "tle_line2": "2 34425  74.0191  30.0353 0024100 152.8146 207.4288 14.62194073889272"
      },
      "geometry": {
        "type": "Point",
        "coordinates": [
          -108.23574820753115,
          -67.30809794782671
        ]
      }
    },
    {
      "type": "Feature",
      "properties": {
        "norad_id": 34429,
        "name": "COSMOS 2251 DEB",
        "group": "cosmos-2251-debris",
        "lat": 6.199778222038829,
        "lon": 140.15522191500062,
        "alt_km": 416.3357764061029,
        "timestamp": "2025-12-26T07:29:18.848753+00:00",
        "meta_object_name": "COSMOS 2251 DEB",
        "meta_object_id": "1993-036RW",
        "meta_epoch": "2025-12-25T19:41:46.493664",
        "meta_mean_motion": 15.47531411,
        "meta_eccentricity": 0.00141306,
        "meta_inclination": 73.9684,
        "meta_ra_of_asc_node": 139.4433,
        "meta_arg_of_pericenter": 342.6607,
        "meta_mean_anomaly": 167.4573,
        "meta_ephemeris_type": 0,
        "meta_classification_type": "U",
        "meta_norad_cat_id": 34429,
        "meta_element_set_no": 999,
        "meta_rev_at_epoch": 89650,
        "meta_bstar": 0.0054719201,
        "meta_mean_motion_dot": 0.00293252,
        "meta_mean_motion_ddot": 0,
        "tle_line1": "1 34429U 93036RW  25359.82067701  .00293252  00000+0  54719-2 0  9998",
        "tle_line2": "2 34429  73.9684 139.4433 0014130 342.6607 167.4573 15.47531411896508"
      },
      "geometry": {
        "type": "Point",
        "coordinates": [
          140.15522191500062,
          6.199778222038829
        ]
      }
    },
    {
      "type": "Feature",
      "properties": {
        "norad_id": 34430,
        "name": "COSMOS 2251 DEB",
        "group": "cosmos-2251-debris",
        "lat": 15.526201512199501,
        "lon": -77.12295448973565,
        "alt_km": 722.7937613566291,
        "timestamp": "2025-12-26T07:29:18.848763+00:00",
        "meta_object_name": "COSMOS 2251 DEB",
        "meta_object_id": "1993-036RX",
        "meta_epoch": "2025-12-25T21:24:29.778048",
        "meta_mean_motion": 14.39670657,
        "meta_eccentricity": 0.00609318,
        "meta_inclination": 74.0519,
        "meta_ra_of_asc_node": 279.0952,
        "meta_arg_of_pericenter": 345.7104,
        "meta_mean_anomaly": 14.2324,
        "meta_ephemeris_type": 0,
        "meta_classification_type": "U",
        "meta_norad_cat_id": 34430,
        "meta_element_set_no": 999,
        "meta_rev_at_epoch": 88144,
        "meta_bstar": 0.00044500873,
        "meta_mean_motion_dot": 1.396e-05,
        "meta_mean_motion_ddot": 0,
        "tle_line1": "1 34430U 93036RX  25359.89201132  .00001396  00000+0  44501-3 0  9990",
        "tle_line2": "2 34430  74.0519 279.0952 0060931 345.7104  14.2324 14.39670657881448"
      },
      "geometry": {
        "type": "Point",
        "coordinates": [
          -77.12295448973565,
          15.526201512199501
        ]
      }
    },
    {
      "type": "Feature",
      "properties": {
        "norad_id": 34431,
        "name": "COSMOS 2251 DEB",
        "group": "cosmos-2251-debris",
        "lat": 66.5393791013934,
        "lon": -70.50862682313452,
        "alt_km": 744.887708007338,
        "timestamp": "2025-12-26T07:29:18.848773+00:00",
        "meta_object_name": "COSMOS 2251 DEB",
        "meta_object_id": "1993-036RY",
        "meta_epoch": "2025-12-25T20:54:23.498784",
        "meta_mean_motion": 14.2881916,
        "meta_eccentricity": 0.00676576,
        "meta_inclination": 74.0741,
        "meta_ra_of_asc_node": 151.4299,
        "meta_arg_of_pericenter": 133.6134,
        "meta_mean_anomaly": 227.0657,
        "meta_ephemeris_type": 0,
        "meta_classification_type": "U",
        "meta_norad_cat_id": 34431,
        "meta_element_set_no": 999,
        "meta_rev_at_epoch": 87330,
        "meta_bstar": 0.00072363013,
        "meta_mean_motion_dot": 1.845e-05,
        "meta_mean_motion_ddot": 0,
        "tle_line1": "1 34431U 93036RY  25359.87110531  .00001845  00000+0  72363-3 0  9997",
        "tle_line2": "2 34431  74.0741 151.4299 0067657 133.6134 227.0657 14.28819160873303"
      },
      "geometry": {
        "type": "Point",
        "coordinates": [
          -70.50862682313452,
          66.5393791013934
        ]
      }
    },
    {
      "type": "Feature",
      "properties": {
        "norad_id": 34432,
        "name": "COSMOS 2251 DEB",
        "group": "cosmos-2251-debris",
        "lat": -61.97429555797594,
        "lon": 45.3785429345827,
        "alt_km": 981.0968691018052,
        "timestamp": "2025-12-26T07:29:18.848783+00:00",
        "meta_object_name": "COSMOS 2251 DEB",
        "meta_object_id": "1993-036RZ",
        "meta_epoch": "2025-12-25T15:15:44.199072",
        "meta_mean_motion": 14.02958931,
        "meta_eccentricity": 0.0181292,
        "meta_inclination": 73.8285,
        "meta_ra_of_asc_node": 79.6035,
        "meta_arg_of_pericenter": 160.2499,
        "meta_mean_anomaly": 318.0811,
        "meta_ephemeris_type": 0,
        "meta_classification_type": "U",
        "meta_norad_cat_id": 34432,
        "meta_element_set_no": 999,
        "meta_rev_at_epoch": 85865,
        "meta_bstar": 0.0011474,
        "meta_mean_motion_dot": 2.034e-05,
        "meta_mean_motion_ddot": 0,
        "tle_line1": "1 34432U 93036RZ  25359.63592823  .00002034  00000+0  11474-2 0  9996",
        "tle_line2": "2 34432  73.8285  79.6035 0181292 160.2499 318.0811 14.02958931858651"
      },
      "geometry": {
        "type": "Point",
        "coordinates": [
          45.3785429345827,
          -61.97429555797594
        ]
      }
    },
    {
      "type": "Feature",
      "properties": {
        "norad_id": 34433,
        "name": "COSMOS 2251 DEB",
        "group": "cosmos-2251-debris",
        "lat": 71.80897577725669,
        "lon": -168.34014090130438,
        "alt_km": 952.2182828483355,
        "timestamp": "2025-12-26T07:29:18.848793+00:00",
        "meta_object_name": "COSMOS 2251 DEB",
        "meta_object_id": "1993-036SA",
        "meta_epoch": "2025-12-25T19:12:11.035008",
        "meta_mean_motion": 14.12911954,
        "meta_eccentricity": 0.01528494,
        "meta_inclination": 74.01,
        "meta_ra_of_asc_node": 131.8065,
        "meta_arg_of_pericenter": 267.1359,
        "meta_mean_anomaly": 91.228,
        "meta_ephemeris_type": 0,
        "meta_classification_type": "U",
        "meta_norad_cat_id": 34433,
        "meta_element_set_no": 999,
        "meta_rev_at_epoch": 86134,
        "meta_bstar": 0.0013789876,
        "meta_mean_motion_dot": 2.843e-05,
        "meta_mean_motion_ddot": 0,
        "tle_line1": "1 34433U 93036SA  25359.80012772  .00002843  00000+0  13790-2 0  9997",
        "tle_line2": "2 34433  74.0100 131.8065 0152849 267.1359  91.2280 14.12911954861348"
      },
      "geometry": {
        "type": "Point",
        "coordinates": [
          -168.34014090130438,
          71.80897577725669
        ]
      }
    },
    {
      "type": "Feature",
      "properties": {
        "norad_id": 34434,
        "name": "COSMOS 2251 DEB",
        "group": "cosmos-2251-debris",
        "lat": -66.28617218518173,
        "lon": -53.53978914625348,
        "alt_km": 1130.1370168390304,
        "timestamp": "2025-12-26T07:29:18.848803+00:00",
        "meta_object_name": "COSMOS 2251 DEB",
        "meta_object_id": "1993-036SB",
        "meta_epoch": "2025-12-25T18:19:57.841824",
        "meta_mean_motion": 13.89885482,
        "meta_eccentricity": 0.0273409,
        "meta_inclination": 74.0626,
        "meta_ra_of_asc_node": 347.9722,
        "meta_arg_of_pericenter": 122.0953,
        "meta_mean_anomaly": 303.2867,
        "meta_ephemeris_type": 0,
        "meta_classification_type": "U",
        "meta_norad_cat_id": 34434,
        "meta_element_set_no": 999,
        "meta_rev_at_epoch": 84147,
        "meta_bstar": 0.002074337,
        "meta_mean_motion_dot": 3.429e-05,
        "meta_mean_motion_ddot": 0,
        "tle_line1": "1 34434U 93036SB  25359.76386391  .00003429  00000+0  20743-2 0  9991",
        "tle_line2": "2 34434  74.0626 347.9722 0273409 122.0953 303.2867 13.89885482841475"
      },
      "geometry": {
        "type": "Point",
        "coordinates": [
          -53.53978914625348,
          -66.28617218518173
        ]
      }
    }
  ]
}